QIANFAN-17              
1 60395U 24140S   26018.98825866  .00000130  00000+0  18277-3 0  9994
2 60395  88.9791 295.5897 0016650  95.7074 264.5976 13.50986341 73168
QIANFAN-18              
1 60396U 24140T   26018.89360135  .00000142  00000+0  20115-3 0  9995
2 60396  88.9783 295.1304 0016107  80.3768 279.9202 13.50986315 72540
QIANFAN-19              
1 61552U 24185A   26018.94094090  .00000406  00000+0  20507-3 0  9997
2 61552  88.9785  73.6807 0007383 167.5664 192.5707 14.14335849 74928
QIANFAN-20              
1 61553U 24185B   26018.90425533  .00000305  00000+0  16840-3 0  9997
2 61553  88.9784  74.0463 0004887 204.3657 155.7296 14.08882491 74724
QIANFAN-21              
1 61554U 24185C   26018.88842871  .00000532  00000+0  23159-3 0  9996
2 61554  88.9700  72.6300 0008834 233.7324 126.3052 14.22660765 75257
QIANFAN-22              
1 61555U 24185D   26018.88940533  .00000166  00000+0  13225-3 0  9997
2 61555  88.9769  75.1785 0004899 228.2148 131.8605 13.86317760 74086
QIANFAN-23              
1 61556U 24185E   26018.93460980  .00000459  00000+0  22442-3 0  9993
2 61556  88.9777  73.4734 0007633 179.6547 180.4648 14.16331591 75015
QIANFAN-24              
1 61557U 24185F   26018.93008777  .00000316  00000+0  13148-3 0  9991
2 61557  88.9759  72.8180 0010081 164.2974 195.8533 14.23861266 75310
